# Made by eph2tle, compiled Sep 22 2023 13:12:59
# Run at Sat Sep 30 18:13:02 2023
#
#    The following TLEs (Two-Line Elements) were generated by fitting
# a numerically-integrated ephemeris,  based on the orbit given below,
# to the SDP4/SGP4 models.  Each TLE is good for the interval between
# its epoch and the epoch of the subsequent TLE (usually one day).
# The maximum deviation between the numerically integrated ephemerides
# and the TLE-based ephemeris, in kilometers,  is given for each TLE
# as the "worst residual".
#
#    This fitting is done using the 'eph2tle' code packaged with Find_Orb.
# The code has details on how the TLEs were computed :
#
#    https://github.com/Bill-Gray/find_orb/eph2tle.cpp
#
#    Be warned:  the error given is that between the numerically
# integrated ephems and the TLE model.  There will usually be at
# least some additional difference between the ephems and the actual
# motion of the satellite,  especially if the ephemerides are based
# on a short arc.  If the following orbital elements say something
# like "[based on] 10 observations 2015 Jan. 1-13",  and the TLEs
# are for 2015 May,  the extrapolation may be tenuous at best.  If
# your application requires a specific level of accuracy,  you may
# want to contact me;  I can give you some idea as to the fit of the
# underlying data (and possibly TLEs based on newer data).
#
#   You can usually find the underlying observational data,  and the
# fitted orbit,  residuals,  ephemerides,  and sometimes some comments
# about the object,  among the pages listed at
#
#    https://www.projectpluto.com/pluto/mpecs/pseudo.htm
#
#    WARNING:  for this object,  "normal" TLEs cannot be fitted.  (This
# usually means an object with an hyperbolic or nearly-parabolic orbit.)
# For this and similar cases,   an alternative model is used,  in which
# most of the traditional TLE data is replaced by six signed 8-digit hex
# numbers.  These six numbers are a state vector,  numerically integrated
# using a simplified force model.  This is necessary for objects at L2 or
# L1,  and sometimes for objects in high orbits where the SDP4/SGP4 model
# fails.  Some documentation is in 'get_el.cpp' in the source code at
# https://www.github.com/Bill-Gray/sat_code ; look for 'hex' in that file,
# with the actual integration done in 'sdp4.cpp'.  But be aware:  it's my
# own extension,  doesn't work with other code,  and is therefore used
# only when necessary.
#
#    Also,  if you use a TLE outside the "correct" time range (between
# its MJD and that of the next TLE),  all bets are off.  I've carefully
# computed and minimized the worst error over the "correct" time frame,
# but the ephemeris may (or may not) diverge wildly outside of it.
#
# Ephem range: 59945.000000 60310.000000 1.000000
# Created Sat Sep 30 18:12:32 2023
# Ephemeris start:  1 Jan 2023  0:00:00
# Ephemeris end:    1 Jan 2024  0:00:00
# Times are all TDT
# Positions/velocities are in equatorial J2000
# Orbital elements:  2023 NM = C9E9G52 = unid temp capture
#    Perigee 2023 Jul 24.829463 +/- 5.72e-5 TT = 19:54:25.6 (JD 2460150.329463)
# Epoch 2023 Jul 10.0 TT; AMR 0.011108 +/- 7.46e-5 m^2/kg          Find_Orb
# M 284.305607854 +/- 0.00044         (J2000 equator)
# n   5.104324405 +/- 1.08e-5         Peri.   86.363370 +/- 0.00055
# a721070.9411 +/- 1.01               Node   278.662165 +/- 0.00009
# e   0.26232855 +/- 1.22e-6          Incl.   18.962465 +/- 0.000039
# P  70.53d                  H 29.97  G  0.15   U  5.1
# q 531913.4449 +/- 1.6    Q 910228.4373 +/- 0.545
# 66 of 69 observations 2023 Apr. 10-July 23; mean residual 0".471
#
# 1 NoradU COSPAR   Epoch.epoch     dn/dt/2  d2n/dt2/6 BSTAR    T El# C
# 2 NoradU Inclina RAAscNode Eccent  ArgPeri MeanAno  MeanMotion Rev# C

# Worst residual: 1.38 km
# MJD 59945.000000 (2023 Jan  1  0:00)
2023 NM = C9E9G52 = unid temp capture
1 79961U 23999ZZL 22365.99919926 -01JRNE1V +01FV450U +00OC5GKZH 20995
2 79961                          +0002AVI6 -0005OUZG -0003G1NU     03

# Worst residual: 1.48 km
# MJD 59946.000000 (2023 Jan  2  0:00)
2023 NM = C9E9G52 = unid temp capture
1 79961U 23999ZZL 23001.99919926 -01J7P4LO +01EIKIZK +00NIN268H 20995
2 79961                          +0002BE4E -0005JP0S -0003DVXM     00

# Worst residual: 1.53 km
# MJD 59947.000000 (2023 Jan  3  0:00)
2023 NM = C9E9G52 = unid temp capture
1 79961U 23999ZZL 23002.99919926 -01INML40 +01D78WA8 +00MPN0XMH 20996
2 79961                          +0002BV94 -0005EOD4 -0003BSK5     08

# Worst residual: 1.55 km
# MJD 59948.000000 (2023 Jan  4  0:00)
2023 NM = C9E9G52 = unid temp capture
1 79961U 23999ZZL 23003.99919926 -01I3G21A +01BX41ZY +00LX4TYUH 20995
2 79961                          +0002CBF6 -00059SC1 -00039R7B     08

# Worst residual: 1.57 km
# MJD 59949.000000 (2023 Jan  5  0:00)
2023 NM = C9E9G52 = unid temp capture
1 79961U 23999ZZL 23004.99919926 -01HJ5Q0H +01AO4Z2I +00L541CQH 20992
2 79961                          +0002CQZO -00055099 -00037RII     06

# Worst residual: 1.61 km
# MJD 59950.000000 (2023 Jan  6  0:00)
2023 NM = C9E9G52 = unid temp capture
1 79961U 23999ZZL 23005.99919926 -01GYRP6Y +019GAS8D +00KDKA7IH 20992
2 79961                          +0002D66B -00050BGT -00035T51     09

# Worst residual: 1.65 km
# MJD 59951.000000 (2023 Jan  7  0:00)
2023 NM = C9E9G52 = unid temp capture
1 79961U 23999ZZL 23006.99919926 -01GEA2HG +0189KRUU +00JMHAOMH 20992
2 79961                          +0002DL1R -0004VPBT -00033VQB     09

# Worst residual: 1.70 km
# MJD 59952.000000 (2023 Jan  8  0:00)
2023 NM = C9E9G52 = unid temp capture
1 79961U 23999ZZL 23007.99919926 -01FTOWPV +0173YDNQ +00IVUVWBH 20994
2 79961                          +0002DZK2 -0004R58P -00031YYA     01

# Worst residual: 1.74 km
# MJD 59953.000000 (2023 Jan  9  0:00)
2023 NM = C9E9G52 = unid temp capture
1 79961U 23999ZZL 23008.99919926 -01F90BPT +015ZF6AW +00I5OXSQH 20990
2 79961                          +0002EDJ1 -0004MMNU -000302HI     08

# Worst residual: 1.77 km
# MJD 59954.000000 (2023 Jan 10  0:00)
2023 NM = C9E9G52 = unid temp capture
1 79961U 23999ZZL 23009.99919926 -01EO8H8O +014VYUWH +00HFZEYRH 20996
2 79961                          +0002EQOR -0004I53T -0002Y61G     09

# Worst residual: 1.83 km
# MJD 59955.000000 (2023 Jan 11  0:00)
2023 NM = C9E9G52 = unid temp capture
1 79961U 23999ZZL 23010.99919926 -01E3DLTG +013TL8H0 +00GQQCDTH 20992
2 79961                          +0002F2O6 -0004DO5L -0002W9CN     06

# Worst residual: 1.93 km
# MJD 59956.000000 (2023 Jan 12  0:00)
2023 NM = C9E9G52 = unid temp capture
1 79961U 23999ZZL 23011.99919926 -01DIG1GV +012SA7D2 +00G1XT6UH 20998
2 79961                          +0002FD19 -000497GD -0002UC6M     06

# Worst residual: 2.07 km
# MJD 59957.000000 (2023 Jan 13  0:00)
2023 NM = C9E9G52 = unid temp capture
1 79961U 23999ZZL 23012.99919926 -01CXG8E2 +011S1QP3 +00FDLYFGH 20995
2 79961                          +0002FL96 -00044QPT -0002SEBY     03

# Worst residual: 2.20 km
# MJD 59958.000000 (2023 Jan 14  0:00)
2023 NM = C9E9G52 = unid temp capture
1 79961U 23999ZZL 23013.99919926 -01CCERP1 +010SVVSY +00EPQYSYH 20992
2 79961                          +0002FQPR -000409PZ -0002QFM9     02

# Worst residual: 2.23 km
# MJD 59959.000000 (2023 Jan 15  0:00)
2023 NM = C9E9G52 = unid temp capture
1 79961U 23999ZZL 23014.99919926 -01BRCE9L +00ZUSPJX +00E2D2DSH 20994
2 79961                          +0002FSOY -0003VSC4 -0002OFWM     07

# Worst residual: 2.07 km
# MJD 59960.000000 (2023 Jan 16  0:00)
2023 NM = C9E9G52 = unid temp capture
1 79961U 23999ZZL 23015.99919926 -01B6A1SG +00YXSBGM +00DFGI78H 20994
2 79961                          +0002FQC0 -0003RAJX -0002MF42     09

# Worst residual: 2.07 km
# MJD 59961.000000 (2023 Jan 17  0:00)
2023 NM = C9E9G52 = unid temp capture
1 79961U 23999ZZL 23016.99919926 -01AL8VWB +00Y1USCK +00CT1JMVH 20993
2 79961                          +0002FINJ -0003MSJW -0002KD8Y     01

# Worst residual: 2.01 km
# MJD 59962.000000 (2023 Jan 18  0:00)
2023 NM = C9E9G52 = unid temp capture
1 79961U 23999ZZL 23017.99919926 -01A0AB6N +00X704CD +00C74FFNH 20992
2 79961                          +0002F4KM -0003IASK -0002IAGH     07

# Worst residual: 1.75 km
# MJD 59963.000000 (2023 Jan 19  0:00)
2023 NM = C9E9G52 = unid temp capture
1 79961U 23999ZZL 23018.99919926 -019FFZNG +00WD863I +00BLPCAYH 20991
2 79961                          +0002EJ0O -0003DU3K -0002G72R     05

# Worst residual: 1.43 km
# MJD 59964.000000 (2023 Jan 20  0:00)
2023 NM = C9E9G52 = unid temp capture
1 79961U 23999ZZL 23019.99919926 -018URTW1 +00VKIJCR +00B0SD2OH 20997
2 79961                          +0002DP41 -00039FPI -0002E3O4     04

# Worst residual: 1.25 km
# MJD 59965.000000 (2023 Jan 21  0:00)
2023 NM = C9E9G52 = unid temp capture
1 79961U 23999ZZL 23020.99919926 -018ABWDK +00USUHHJ +00AGDEQHH 20996
2 79961                          +0002CMEU -00035587 -0002C10M     09

# Worst residual: 1.37 km
# MJD 59966.000000 (2023 Jan 22  0:00)
2023 NM = C9E9G52 = unid temp capture
1 79961U 23999ZZL 23021.99919926 -017Q6AOG +00U26V0N +009WG6UMH 20995
2 79961                          +0002BB4W -000310G2 -0002A01D     01

# Worst residual: 1.48 km
# MJD 59967.000000 (2023 Jan 23  0:00)
2023 NM = C9E9G52 = unid temp capture
1 79961U 23999ZZL 23022.99919926 -0176CZ8L +00TCI3A1 +009D06ZAH 20990
2 79961                          +00029S92 -0002X31D -000281MZ     05

# Worst residual: 1.61 km
# MJD 59968.000000 (2023 Jan 24  0:00)
2023 NM = C9E9G52 = unid temp capture
1 79961U 23999ZZL 23023.99919926 -016MXL9B +00SNQ8Q6 +008U0PHUH 20998
2 79961                          +000283CU -0002TE9I -000266JT     04

# Worst residual: 1.56 km
# MJD 59969.000000 (2023 Jan 25  0:00)
2023 NM = C9E9G52 = unid temp capture
1 79961U 23999ZZL 23024.99919926 -0163XCEH +00RZT5G9 +008BGVMXH 20993
2 79961                          +00026AE7 -0002PYS8 -00024F7V     04

